{"type": "FeatureCollection", "features": [ {"type": "Feature", "properties": {"norad_id": 40534, "name": "GPS BIIF-9  (PRN 26)", "group": "gps-ops", "lat": -9.381171996786136, "lon": 38.570947812520586, "alt_km": 20437.55019622057, "timestamp": "2025-12-23T07:45:09.663424+00:00", "meta": {"OBJECT_NAME": "GPS BIIF-9  (PRN 26)", "OBJECT_ID": "2015-013A", "EPOCH": "2025-12-22T13:27:33.794784", "MEAN_MOTION": 2.00561992, "ECCENTRICITY": 0.01074276, "INCLINATION": 53.1964, "RA_OF_ASC_NODE": 211.4834, "ARG_OF_PERICENTER": 38.7225, "MEAN_ANOMALY": 322.126, "EPHEMERIS_TYPE": 0, "CLASSIFICATION_TYPE": "U", "NORAD_CAT_ID": 40534, "ELEMENT_SET_NO": 999, "REV_AT_EPOCH": 7828, "BSTAR": 0, "MEAN_MOTION_DOT": 7.5e-07, "MEAN_MOTION_DDOT": 0}, "tle": {"line1": "1 40534U 15013A   25356.56080781  .00000075  00000+0  00000+0 0  9992", "line2": "2 40534  53.1964 211.4834 0107427  38.7225 322.1260  2.00561992 78282"}}, "geometry": {"type": "Point", "coordinates": [38.570947812520586, -9.381171996786136]}}, {"type": "Feature", "properties": {"norad_id": 40730, "name": "GPS BIIF-10 (PRN 08)", "group": "gps-ops", "lat": 51.68428645969633, "lon": -19.512960499867514, "alt_km": 19977.79471798228, "timestamp": "2025-12-23T07:45:09.663436+00:00", "meta": {"OBJECT_NAME": "GPS BIIF-10 (PRN 08)", "OBJECT_ID": "2015-033A", "EPOCH": "2025-12-21T17:23:51.616608", "MEAN_MOTION": 2.00565211, "ECCENTRICITY": 0.01114778, "INCLINATION": 54.1229, "RA_OF_ASC_NODE": 274.4032, "ARG_OF_PERICENTER": 27.0282, "MEAN_ANOMALY": 333.5929, "EPHEMERIS_TYPE": 0, "CLASSIFICATION_TYPE": "U", "NORAD_CAT_ID": 40730, "ELEMENT_SET_NO": 999, "REV_AT_EPOCH": 7643, "BSTAR": 0, "MEAN_MOTION_DOT": -1.3e-07, "MEAN_MOTION_DDOT": 0}, "tle": {"line1": "1 40730U 15033A   25355.72490297 -.00000013  00000+0  00000+0 0  9999", "line2": "2 40730  54.1229 274.4032 0111477  27.0282 333.5929  2.00565211 76439"}}, "geometry": {"type": "Point", "coordinates": [-19.512960499867514, 51.68428645969633]}}, {"type": "Feature", "properties": {"norad_id": 41019, "name": "GPS BIIF-11 (PRN 10)", "group": "gps-ops", "lat": 25.15170919067488, "lon": 55.47999458727698, "alt_km": 20456.65326149301, "timestamp": "2025-12-23T07:45:09.663447+00:00", "meta": {"OBJECT_NAME": "GPS BIIF-11 (PRN 10)", "OBJECT_ID": "2015-062A", "EPOCH": "2025-12-22T06:47:19.515264", "MEAN_MOTION": 2.00567132, "ECCENTRICITY": 0.01110491, "INCLINATION": 56.8391, "RA_OF_ASC_NODE": 37.6333, "ARG_OF_PERICENTER": 230.1993, "MEAN_ANOMALY": 128.8844, "EPHEMERIS_TYPE": 0, "CLASSIFICATION_TYPE": "U", "NORAD_CAT_ID": 41019, "ELEMENT_SET_NO": 999, "REV_AT_EPOCH": 7428, "BSTAR": 0, "MEAN_MOTION_DOT": -4.9e-07, "MEAN_MOTION_DDOT": 0}, "tle": {"line1": "1 41019U 15062A   25356.28286476 -.00000049  00000+0  00000+0 0  9995", "line2": "2 41019  56.8391  37.6333 0111049 230.1993 128.8844  2.00567132 74289"}}, "geometry": {"type": "Point", "coordinates": [55.47999458727698, 25.15170919067488]}}, {"type": "Feature", "properties": {"norad_id": 41328, "name": "GPS BIIF-12 (PRN 32)", "group": "gps-ops", "lat": -23.21904391593758, "lon": 79.25011483111476, "alt_km": 20173.390132988523, "timestamp": "2025-12-23T07:45:09.663458+00:00", "meta": {"OBJECT_NAME": "GPS BIIF-12 (PRN 32)", "OBJECT_ID": "2016-007A", "EPOCH": "2025-12-21T08:50:32.363232", "MEAN_MOTION": 2.00560305, "ECCENTRICITY": 0.00925842, "INCLINATION": 55.4109, "RA_OF_ASC_NODE": 96.5146, "ARG_OF_PERICENTER": 243.788, "MEAN_ANOMALY": 115.2562, "EPHEMERIS_TYPE": 0, "CLASSIFICATION_TYPE": "U", "NORAD_CAT_ID": 41328, "ELEMENT_SET_NO": 999, "REV_AT_EPOCH": 7227, "BSTAR": 0, "MEAN_MOTION_DOT": -8e-08, "MEAN_MOTION_DDOT": 0}, "tle": {"line1": "1 41328U 16007A   25355.36843013 -.00000008  00000+0  00000+0 0  9997", "line2": "2 41328  55.4109  96.5146 0092584 243.7880 115.2562  2.00560305 72276"}}, "geometry": {"type": "Point", "coordinates": [79.25011483111476, -23.21904391593758]}}, {"type": "Feature", "properties": {"norad_id": 43873, "name": "GPS BIII-1  (PRN 04)", "group": "gps-ops", "lat": -35.66817269100609, "lon": -51.42472102145305, "alt_km": 20100.41538977915, "timestamp": "2025-12-23T07:45:09.663469+00:00", "meta": {"OBJECT_NAME": "GPS BIII-1  (PRN 04)", "OBJECT_ID": "2018-109A", "EPOCH": "2025-12-21T18:06:33.031872", "MEAN_MOTION": 2.00553985, "ECCENTRICITY": 0.00375944, "INCLINATION": 55.5715, "RA_OF_ASC_NODE": 99.1915, "ARG_OF_PERICENTER": 195.3805, "MEAN_ANOMALY": 336.8667, "EPHEMERIS_TYPE": 0, "CLASSIFICATION_TYPE": "U", "NORAD_CAT_ID": 43873, "ELEMENT_SET_NO": 999, "REV_AT_EPOCH": 5151, "BSTAR": 0, "MEAN_MOTION_DOT": -1e-08, "MEAN_MOTION_DDOT": 0}, "tle": {"line1": "1 43873U 18109A   25355.75454898 -.00000001  00000+0  00000+0 0  9994", "line2": "2 43873  55.5715  99.1915 0037594 195.3805 336.8667  2.00553985 51516"}}, "geometry": {"type": "Point", "coordinates": [-51.42472102145305, -35.66817269100609]}}, {"type": "Feature", "properties": {"norad_id": 44506, "name": "GPS BIII-2  (PRN 18)", "group": "gps-ops", "lat": 44.76911460820306, "lon": 115.54937195840255, "alt_km": 20141.51670695865, "timestamp": "2025-12-23T07:45:09.663480+00:00", "meta": {"OBJECT_NAME": "GPS BIII-2  (PRN 18)", "OBJECT_ID": "2019-056A", "EPOCH": "2025-12-22T09:30:36.985824", "MEAN_MOTION": 2.00566609, "ECCENTRICITY": 0.00577373, "INCLINATION": 55.718, "RA_OF_ASC_NODE": 338.1699, "ARG_OF_PERICENTER": 198.5796, "MEAN_ANOMALY": 334.3723, "EPHEMERIS_TYPE": 0, "CLASSIFICATION_TYPE": "U", "NORAD_CAT_ID": 44506, "ELEMENT_SET_NO": 999, "REV_AT_EPOCH": 4652, "BSTAR": 0, "MEAN_MOTION_DOT": -6.7e-07, "MEAN_MOTION_DDOT": 0}, "tle": {"line1": "1 44506U 19056A   25356.39626141 -.00000067  00000+0  00000+0 0  9995", "line2": "2 44506  55.7180 338.1699 0057737 198.5796 334.3723  2.00566609 46526"}}, "geometry": {"type": "Point", "coordinates": [115.54937195840255, 44.76911460820306]}}, {"type": "Feature", "properties": {"norad_id": 45854, "name": "GPS BIII-3  (PRN 23)", "group": "gps-ops", "lat": 49.39650889781536, "lon": 86.21020542103166, "alt_km": 20296.450333858804, "timestamp": "2025-12-23T07:45:09.663491+00:00", "meta": {"OBJECT_NAME": "GPS BIII-3  (PRN 23)", "OBJECT_ID": "2020-041A", "EPOCH": "2025-12-22T05:37:47.217792", "MEAN_MOTION": 2.00561833, "ECCENTRICITY": 0.00606538, "INCLINATION": 56.5532, "RA_OF_ASC_NODE": 35.8163, "ARG_OF_PERICENTER": 203.667, "MEAN_ANOMALY": 156.4419, "EPHEMERIS_TYPE": 0, "CLASSIFICATION_TYPE": "U", "NORAD_CAT_ID": 45854, "ELEMENT_SET_NO": 999, "REV_AT_EPOCH": 4049, "BSTAR": 0, "MEAN_MOTION_DOT": -5.1e-07, "MEAN_MOTION_DDOT": 0}, "tle": {"line1": "1 45854U 20041A   25356.23457428 -.00000051  00000+0  00000+0 0  9994", "line2": "2 45854  56.5532  35.8163 0060653 203.6670 156.4419  2.00561833 40499"}}, "geometry": {"type": "Point", "coordinates": [86.21020542103166, 49.39650889781536]}}, {"type": "Feature", "properties": {"norad_id": 46826, "name": "GPS BIII-4  (PRN 14)", "group": "gps-ops", "lat": 29.158949029590293, "lon": -118.15786823079911, "alt_km": 20345.91080582774, "timestamp": "2025-12-23T07:45:09.663502+00:00", "meta": {"OBJECT_NAME": "GPS BIII-4  (PRN 14)", "OBJECT_ID": "2020-078A", "EPOCH": "2025-12-16T01:06:13.902336", "MEAN_MOTION": 2.00566891, "ECCENTRICITY": 0.0064755, "INCLINATION": 54.0145, "RA_OF_ASC_NODE": 218.2068, "ARG_OF_PERICENTER": 203.3828, "MEAN_ANOMALY": 339.3936, "EPHEMERIS_TYPE": 0, "CLASSIFICATION_TYPE": "U", "NORAD_CAT_ID": 46826, "ELEMENT_SET_NO": 999, "REV_AT_EPOCH": 3783, "BSTAR": 0, "MEAN_MOTION_DOT": 6.7e-07, "MEAN_MOTION_DDOT": 0}, "tle": {"line1": "1 46826U 20078A   25350.04599424  .00000067  00000+0  00000+0 0  9996", "line2": "2 46826  54.0145 218.2068 0064755 203.3828 339.3936  2.00566891 37831"}}, "geometry": {"type": "Point", "coordinates": [-118.15786823079911, 29.158949029590293]}}, {"type": "Feature", "properties": {"norad_id": 48859, "name": "GPS BIII-5  (PRN 11)", "group": "gps-ops", "lat": -33.372134467188246, "lon": -173.2853745193378, "alt_km": 20123.128228022302, "timestamp": "2025-12-23T07:45:09.663513+00:00", "meta": {"OBJECT_NAME": "GPS BIII-5  (PRN 11)", "OBJECT_ID": "2021-054A", "EPOCH": "2025-12-08T04:14:32.423424", "MEAN_MOTION": 2.00553627, "ECCENTRICITY": 0.0024678, "INCLINATION": 55.2581, "RA_OF_ASC_NODE": 340.1367, "ARG_OF_PERICENTER": 233.3993, "MEAN_ANOMALY": 212.8594, "EPHEMERIS_TYPE": 0, "CLASSIFICATION_TYPE": "U", "NORAD_CAT_ID": 48859, "ELEMENT_SET_NO": 999, "REV_AT_EPOCH": 3292, "BSTAR": 0, "MEAN_MOTION_DOT": -8.6e-07, "MEAN_MOTION_DDOT": 0}, "tle": {"line1": "1 48859U 21054A   25342.17676416 -.00000086  00000+0  00000+0 0  9993", "line2": "2 48859  55.2581 340.1367 0024678 233.3993 212.8594  2.00553627 32922"}}, "geometry": {"type": "Point", "coordinates": [-173.2853745193378, -33.372134467188246]}}, {"type": "Feature", "properties": {"norad_id": 55268, "name": "GPS BIII-6  (PRN 28)", "group": "gps-ops", "lat": -54.719359874458895, "lon": 55.982974177411705, "alt_km": 20189.02103824418, "timestamp": "2025-12-23T07:45:09.663524+00:00", "meta": {"OBJECT_NAME": "GPS BIII-6  (PRN 28)", "OBJECT_ID": "2023-009A", "EPOCH": "2025-12-22T10:59:58.065216", "MEAN_MOTION": 2.00554901, "ECCENTRICITY": 0.00037047, "INCLINATION": 55.1065, "RA_OF_ASC_NODE": 155.4638, "ARG_OF_PERICENTER": 355.7912, "MEAN_ANOMALY": 4.4255, "EPHEMERIS_TYPE": 0, "CLASSIFICATION_TYPE": "U", "NORAD_CAT_ID": 55268, "ELEMENT_SET_NO": 999, "REV_AT_EPOCH": 2170, "BSTAR": 0, "MEAN_MOTION_DOT": 7.4e-07, "MEAN_MOTION_DDOT": 0}, "tle": {"line1": "1 55268U 23009A   25356.45831094  .00000074  00000+0  00000+0 0  9994", "line2": "2 55268  55.1065 155.4638 0003704 355.7912   4.4255  2.00554901 21704"}}, "geometry": {"type": "Point", "coordinates": [55.982974177411705, -54.719359874458895]}}]}